[{"OBJECT_NAME":"STARLINK-35840","OBJECT_ID":"2025-280P","EPOCH":"2026-03-09T23:27:17.172576","MEAN_MOTION":14.98341894,"ECCENTRICITY":0.00027132,"INCLINATION":70.0018,"RA_OF_ASC_NODE":333.5414,"ARG_OF_PERICENTER":269.2016,"MEAN_ANOMALY":90.8832,"EPHEMERIS_TYPE":0,"CLASSIFICATION_TYPE":"U","NORAD_CAT_ID":66834,"ELEMENT_SET_NO":999,"REV_AT_EPOCH":1612,"BSTAR":0.0005359238,"MEAN_MOTION_DOT":6.309e-5,"MEAN_MOTION_DDOT":0},{"OBJECT_NAME":"FENGYUN 1C DEB","OBJECT_ID":"1999-025EZQ","EPOCH":"2026-03-02T09:43:26.129856","MEAN_MOTION":14.27138362,"ECCENTRICITY":0.0348107,"INCLINATION":98.2222,"RA_OF_ASC_NODE":265.8497,"ARG_OF_PERICENTER":185.4453,"MEAN_ANOMALY":297.6866,"EPHEMERIS_TYPE":0,"CLASSIFICATION_TYPE":"U","NORAD_CAT_ID":46990,"ELEMENT_SET_NO":999,"REV_AT_EPOCH":9664,"BSTAR":0.0052877,"MEAN_MOTION_DOT":0.0002469,"MEAN_MOTION_DDOT":0}]
